[{"OBJECT_ID":"2015-041A","OBJECT_NAME":"GSAT 6","NORAD_CAT_ID":"40880","OBJECT_TYPE":"PAYLOAD","PERIOD":"1436.087","INCLINATION":"0.445","APOGEE":"35817.086","PERIGEE":"35755.720","ECCENTRICITY":"0.0007277","MEAN_MOTION":"1.00272474","TLE_LINE1":"1 40880U 15041A   16238.83999070 -.00000193 +00000-0 +00000-0 0  9990","TLE_LINE2":"2 40880 000.4450 270.2996 0007277 346.3648 103.2472 01.00272474003714","LAUNCH_DATE":"2015-08-27","LAUNCH_SITE":"SIRHARIKOTA","OWNER":"INDIA","ORBIT_TYPE":"Geosynchronous","OPERATIONAL_STATUS":"Operational","satInfo":{"lng":67.59072654047333,"lat":0.5463743962435609,"elevation":-8.03508562972984,"azimuth":247.40927345952662,"range":42604.455216587674,"height":35809.972005971445,"velocity":3.0729427414341637},"x":331,"y":-137,"dx":12,"dy":-28},{"OBJECT_ID":"2015-042A","OBJECT_NAME":"INMARSAT 5-F3","NORAD_CAT_ID":"40882","OBJECT_TYPE":"PAYLOAD","PERIOD":"1436.108","INCLINATION":"0.0187","APOGEE":"35789.615","PERIGEE":"35784.015","ECCENTRICITY":"6.64e-05","MEAN_MOTION":"1.00271006","TLE_LINE1":"1 40882U 15042A   16238.57256652  .00000023  00000-0  00000+0 0  9996","TLE_LINE2":"2 40882   0.0187 103.2209 0000664 140.8446 115.9216  1.00271006  3634","LAUNCH_DATE":"2015-08-28","LAUNCH_SITE":"TYURATAM MISSILE AND SPACE COMPLEX","OWNER":"INTERNATIONAL MARITIME SATELLITE ORGANIZATION (INMARSAT)","ORBIT_TYPE":"Geosynchronous","OPERATIONAL_STATUS":"Operational","satInfo":{"lng":32.05651159427001,"lat":-2.102000865627601,"elevation":-10.62620658621489,"azimuth":282.94348840572997,"range":42848.26598476909,"height":35763.65666659695,"velocity":3.075473678661597},"x":190,"y":-303,"dx":26,"dy":-16},{"OBJECT_ID":"2015-046A","OBJECT_NAME":"TJS-1","NORAD_CAT_ID":"40892","OBJECT_TYPE":"PAYLOAD","PERIOD":"1436.077","INCLINATION":"0.0419","APOGEE":"35800.859","PERIGEE":"35771.563","ECCENTRICITY":"0.0003474","MEAN_MOTION":"1.0027316","TLE_LINE1":"1 40892U 15046A   16238.66247645 -.00000183  00000-0  00000+0 0  9991","TLE_LINE2":"2 40892   0.0419 223.2316 0003474 133.4166  11.1931  1.00273160  3638","LAUNCH_DATE":"2015-09-12","LAUNCH_SITE":"Xichang Space Center, China","OWNER":"PEOPLES REPUBLIC OF CHINA","ORBIT_TYPE":"Geosynchronous","OPERATIONAL_STATUS":"Operational","satInfo":{"lng":-126.81355784366751,"lat":0.4046553423538648,"elevation":-8.169445351840562,"azimuth":81.8135578436675,"range":42640.91681229729,"height":35831.11786303147,"velocity":3.0725907267640187},"x":-287,"y":215,"dx":-18,"dy":25},{"OBJECT_ID":"2015-048A","OBJECT_NAME":"EXPRESS AM-8","NORAD_CAT_ID":"40895","OBJECT_TYPE":"PAYLOAD","PERIOD":"1436.097","INCLINATION":"0.029","APOGEE":"35789.315","PERIGEE":"35783.918","ECCENTRICITY":"6.4e-05","MEAN_MOTION":"1.00271714","TLE_LINE1":"1 40895U 15048A   16238.82135913 -.00000139 +00000-0 +00000-0 0  9990","TLE_LINE2":"2 40895 000.0290 269.3955 0000640 009.3752 337.4103 01.00271714003450","LAUNCH_DATE":"2015-09-14","LAUNCH_SITE":"TYURATAM MISSILE AND SPACE COMPLEX","OWNER":"COMMONWEALTH OF INDEPENDENT STATES","ORBIT_TYPE":"Geosynchronous","OPERATIONAL_STATUS":"Operational","satInfo":{"lng":-152.6374262380367,"lat":-1.9040795010822986,"elevation":-10.43354237261197,"azimuth":107.6374262380367,"range":42828.21865581015,"height":35765.1894608234,"velocity":3.075453233277076},"x":-164,"y":318,"dx":-27,"dy":14},{"OBJECT_ID":"2015-048B","OBJECT_NAME":"BLOCK DM-SL R/B","NORAD_CAT_ID":"40896","OBJECT_TYPE":"ROCKET BODY","PERIOD":"1459.655","INCLINATION":"0.7347","APOGEE":"36665.863","PERIGEE":"35827.096","ECCENTRICITY":"0.009839","MEAN_MOTION":"0.98653401","TLE_LINE1":"1 40896U 15048B   16238.40839248  .00000014  00000-0  00000+0 0  9997","TLE_LINE2":"2 40896   0.7347  86.4577 0098390  53.5728 220.6946  0.98653401  3420","LAUNCH_DATE":"2015-09-14","LAUNCH_SITE":"TYURATAM MISSILE AND SPACE COMPLEX","OWNER":"COMMONWEALTH OF INDEPENDENT STATES","ORBIT_TYPE":"Unclassified","OPERATIONAL_STATUS":"N/A, derelict rocket body","satInfo":{"lng":21.39905720079249,"lat":-2.6617157124514375,"elevation":-11.00934881387154,"azimuth":293.60094279920753,"range":43727.342980231006,"height":36590.761512951016,"velocity":3.0334243946620028},"x":134,"y":-341,"dx":28,"dy":-11},{"OBJECT_ID":"2015-054A","OBJECT_NAME":"SKY MUSTER","NORAD_CAT_ID":"40940","OBJECT_TYPE":"PAYLOAD","PERIOD":"1436.185","INCLINATION":"0.0207","APOGEE":"35796.134","PERIGEE":"35780.532","ECCENTRICITY":"0.000185","MEAN_MOTION":"1.0026559","TLE_LINE1":"1 40940U 15054A   16237.96932466  .00000000  00000-0  10000-3 0  9990","TLE_LINE2":"2 40940   0.0207  83.3086 0001850  65.2612 314.2648  1.00265590  3360","LAUNCH_DATE":"2015-09-30","LAUNCH_SITE":"FRENCH GUIANA","OWNER":"AUSTRALIA","ORBIT_TYPE":"Geosynchronous","OPERATIONAL_STATUS":"Operational","satInfo":{"lng":122.70086799718776,"lat":1.6473047108289005,"elevation":-6.9662454228197035,"azimuth":192.2991320028122,"range":42436.783074805346,"height":35762.766530396555,"velocity":3.0757221439346885},"x":301,"y":193,"dx":-17,"dy":-26},{"OBJECT_ID":"2015-054B","OBJECT_NAME":"ARSAT 2","NORAD_CAT_ID":"40941","OBJECT_TYPE":"PAYLOAD","PERIOD":"1436.108","INCLINATION":"0.0388","APOGEE":"35792.968","PERIGEE":"35780.673","ECCENTRICITY":"0.0001458","MEAN_MOTION":"1.00270985","TLE_LINE1":"1 40941U 15054B   16238.29728104 -.00000251 +00000-0 +00000-0 0  9995","TLE_LINE2":"2 40941 000.0388 297.0810 0001458 242.6629 180.2507 01.00270985003407","LAUNCH_DATE":"2015-09-30","LAUNCH_SITE":"FRENCH GUIANA","OWNER":"ARGENTINA","ORBIT_TYPE":"Geosynchronous","OPERATIONAL_STATUS":"Operational","satInfo":{"lng":-98.77902504225227,"lat":-1.050728037525307,"elevation":-9.597373434158202,"azimuth":53.77902504225224,"range":42763.45183998285,"height":35793.8679151864,"velocity":3.074574673380899},"x":-354,"y":55,"dx":-5,"dy":30},{"OBJECT_ID":"2015-059A","OBJECT_NAME":"APSTAR 9","NORAD_CAT_ID":"40982","OBJECT_TYPE":"PAYLOAD","PERIOD":"1436.102","INCLINATION":"0.0125","APOGEE":"35793.669","PERIGEE":"35779.755","ECCENTRICITY":"0.000165","MEAN_MOTION":"1.00271372","TLE_LINE1":"1 40982U 15059A   16238.67669770 -.00000293 +00000-0 +00000-0 0  9996","TLE_LINE2":"2 40982 000.0125 193.8716 0001650 031.8836 134.2250 01.00271372003237","LAUNCH_DATE":"2015-10-16","LAUNCH_SITE":"Xichang Space Center, China","OWNER":"PEOPLES REPUBLIC OF CHINA","ORBIT_TYPE":"Geosynchronous","OPERATIONAL_STATUS":"Operational","satInfo":{"lng":85.50407910131374,"lat":-0.40211773973625914,"elevation":-8.971727464831462,"azimuth":229.49592089868625,"range":42659.07479612856,"height":35760.058352073764,"velocity":3.0754026026806685},"x":357,"y":-28,"dx":2,"dy":-31},{"OBJECT_ID":"2015-060A","OBJECT_NAME":"TURKSAT 4B","NORAD_CAT_ID":"40984","OBJECT_TYPE":"PAYLOAD","PERIOD":"1436.042","INCLINATION":"0.0264","APOGEE":"35795.474","PERIGEE":"35775.590","ECCENTRICITY":"0.0002358","MEAN_MOTION":"1.00275583","TLE_LINE1":"1 40984U 15060A   16238.93158790 +.00000086 +00000-0 +00000-0 0  9993","TLE_LINE2":"2 40984 000.0264 263.1935 0002358 257.4110 199.3978 01.00275583003196","LAUNCH_DATE":"2015-10-16","LAUNCH_SITE":"TYURATAM MISSILE AND SPACE COMPLEX","OWNER":"TURKEY","ORBIT_TYPE":"Geosynchronous","OPERATIONAL_STATUS":"Operational","satInfo":{"lng":99.15323803355761,"lat":-0.8453573635854985,"elevation":-9.399391708276147,"azimuth":215.8467619664424,"range":42730.350480571244,"height":35783.09560828918,"velocity":3.0747984936839434},"x":353,"y":57,"dx":-5,"dy":-30},{"OBJECT_ID":"2015-063A","OBJECT_NAME":"CHINASAT 2C","NORAD_CAT_ID":"41021","OBJECT_TYPE":"PAYLOAD","PERIOD":"1436.139","INCLINATION":"0.0498","APOGEE":"35791.544","PERIGEE":"35783.305","ECCENTRICITY":"9.77e-05","MEAN_MOTION":"1.00268832","TLE_LINE1":"1 41021U 15063A   16239.04359612 -.00000351  00000-0  00000+0 0  9993","TLE_LINE2":"2 41021   0.0498 275.3258 0000977 291.0073 247.5065  1.00268832  3099","LAUNCH_DATE":"2015-11-03","LAUNCH_SITE":"Xichang Space Center, China","OWNER":"PEOPLES REPUBLIC OF CHINA","ORBIT_TYPE":"Geosynchronous","OPERATIONAL_STATUS":"Operational","satInfo":{"lng":48.571612455375735,"lat":1.4903614753625019,"elevation":-7.1133083451893455,"azimuth":266.4283875446243,"range":42487.555450669024,"height":35796.652990610244,"velocity":3.0741849140217647},"x":268,"y":-237,"dx":20,"dy":-23},{"OBJECT_ID":"2015-065A","OBJECT_NAME":"GSAT 15","NORAD_CAT_ID":"41028","OBJECT_TYPE":"PAYLOAD","PERIOD":"1436.120","INCLINATION":"0.0393","APOGEE":"35788.162","PERIGEE":"35785.936","ECCENTRICITY":"2.64e-05","MEAN_MOTION":"1.0027017","TLE_LINE1":"1 41028U 15065A   16238.81112160 -.00000285 +00000-0 +00000-0 0  9998","TLE_LINE2":"2 41028 000.0393 292.3228 0000264 136.7941 290.8794 01.00270170002934","LAUNCH_DATE":"2015-11-10","LAUNCH_SITE":"FRENCH GUIANA","OWNER":"INDIA","ORBIT_TYPE":"Geosynchronous","OPERATIONAL_STATUS":"Operational","satInfo":{"lng":56.65489625743487,"lat":1.6548457434596964,"elevation":-6.954337339061955,"azimuth":258.34510374256513,"range":42458.023406762346,"height":35785.08835491784,"velocity":3.074791621571054},"x":299,"y":-197,"dx":17,"dy":-26},{"OBJECT_ID":"2015-065B","OBJECT_NAME":"BADR 7","NORAD_CAT_ID":"41029","OBJECT_TYPE":"PAYLOAD","PERIOD":"1436.084","INCLINATION":"0.0619","APOGEE":"35805.464","PERIGEE":"35767.229","ECCENTRICITY":"0.0004534","MEAN_MOTION":"1.00272676","TLE_LINE1":"1 41029U 15065B   16238.00076053  .00000119  00000-0  00000+0 0  9994","TLE_LINE2":"2 41029   0.0619 260.3049 0004534 316.0179 143.6416  1.00272676  2986","LAUNCH_DATE":"2015-11-10","LAUNCH_SITE":"FRENCH GUIANA","OWNER":"ARAB SATELLITE COMMUNICATIONS ORGANIZATION","ORBIT_TYPE":"Geosynchronous","OPERATIONAL_STATUS":"Operational","satInfo":{"lng":63.56350533072146,"lat":0.4124569531240186,"elevation":-8.17215468728041,"azimuth":251.43649466927855,"range":42589.09567815643,"height":35779.57598218808,"velocity":3.0742325423875996},"x":320,"y":-159,"dx":14,"dy":-28}]